STARLINK-35741          
1 66272U 25247H   26064.60620745  .00051817  00000+0  17501-2 0  9998
2 66272  53.1600 210.0443 0000944  62.8952 297.2145 15.30188836 20468
STARLINK-35730          
1 66273U 25247J   26064.61994456  .00017735  00000+0  60992-3 0  9997
2 66273  53.1586 210.1278 0001179  78.7429 281.3704 15.30176660 20462
STARLINK-35760          
1 66274U 25247K   26064.59260032  .00053484  00000+0  18055-2 0  9994
2 66274  53.1610 210.6657 0000829 110.8621 249.2469 15.30190924 20404
STARLINK-35752          
1 66275U 25247L   26064.38821425  .00032421  00000+0  11014-2 0  9997
2 66275  53.1582 211.5245 0002595  84.0068 276.1229 15.30214853 20372
STARLINK-35742          
1 66276U 25247M   26064.57465837  .00029692  00000+0  10104-2 0  9995
2 66276  53.1576 210.5519 0000747 103.4082 256.7002 15.30208665 20454
STARLINK-35708          
1 66277U 25247N   26064.56516366  .00021414  00000+0  73305-3 0  9996
2 66277  53.1574 210.4962 0001102  80.3007 279.8119 15.30199359 20454
STARLINK-35713          
1 66278U 25247P   26064.66728138  .00058062  00000+0  19531-2 0  9999
2 66278  53.1576 209.7109 0000881  60.2888 299.8200 15.30269162 20473
STARLINK-35724          
1 66279U 25247Q   26064.66424314  .00177390  00000+0  58773-2 0  9996
2 66279  53.1604 210.4011 0001048  71.3237 288.7878 15.30103717 20419
STARLINK-35726          
1 66280U 25247R   26064.61042664  .00034203  00000+0  11618-2 0  9999
2 66280  53.1601 210.0673 0001160  91.8105 268.3028 15.30194788 20413
STARLINK-35727          
1 66281U 25247S   26064.66002847  .00030966  00000+0  10522-2 0  9999
2 66281  53.1587 210.3741 0001775  87.3482 272.7722 15.30234434 20419
STARLINK-35776          
1 66282U 25247T   26064.59048915  .00030652  00000+0  10431-2 0  9999
2 66282  53.1603 210.6512 0001044  59.6164 300.4940 15.30189067 20407
STARLINK-35774          
1 66283U 25247U   26064.12905735  .00020501  00000+0  70205-3 0  9999
2 66283  53.1597 212.7472 0000104 282.8302  77.2687 15.30214614 20334
STARLINK-35830          
1 66284U 25247V   26064.58204613  .00039253  00000+0  13303-2 0  9996
2 66284  53.1591 210.5949 0001096  92.9922 267.1204 15.30203550 20403
STARLINK-35819          
1 66285U 25247W   26064.57677089  .00029116  00000+0  99069-3 0  9998
2 66285  53.1588 210.5637 0001369  35.3111 324.7980 15.30220503 20406
STARLINK-35783          
1 66286U 25247X   26064.57256331  .00029105  00000+0  99024-3 0  9991
2 66286  53.1574 210.5407 0001140  47.9544 312.1553 15.30222952 20400
STARLINK-34884          
1 66287U 25247Y   26064.56727014  .00043028  00000+0  14550-2 0  9992
2 66287  53.1571 210.5025 0000932  99.5403 260.5703 15.30233012 20401
