[{"OBJECT_NAME":"STARLINK-35741","OBJECT_ID":"2025-247H","EPOCH":"2026-03-05T14:32:56.323680","MEAN_MOTION":15.30188836,"ECCENTRICITY":9.447e-5,"INCLINATION":53.16,"RA_OF_ASC_NODE":210.0443,"ARG_OF_PERICENTER":62.8952,"MEAN_ANOMALY":297.2145,"EPHEMERIS_TYPE":0,"CLASSIFICATION_TYPE":"U","NORAD_CAT_ID":66272,"ELEMENT_SET_NO":999,"REV_AT_EPOCH":2046,"BSTAR":0.0017500793,"MEAN_MOTION_DOT":0.00051817,"MEAN_MOTION_DDOT":0},{"OBJECT_NAME":"STARLINK-35730","OBJECT_ID":"2025-247J","EPOCH":"2026-03-05T14:52:43.209984","MEAN_MOTION":15.3017666,"ECCENTRICITY":0.00011791,"INCLINATION":53.1586,"RA_OF_ASC_NODE":210.1278,"ARG_OF_PERICENTER":78.7429,"MEAN_ANOMALY":281.3704,"EPHEMERIS_TYPE":0,"CLASSIFICATION_TYPE":"U","NORAD_CAT_ID":66273,"ELEMENT_SET_NO":999,"REV_AT_EPOCH":2046,"BSTAR":0.00060992152,"MEAN_MOTION_DOT":0.00017735,"MEAN_MOTION_DDOT":0},{"OBJECT_NAME":"STARLINK-35760","OBJECT_ID":"2025-247K","EPOCH":"2026-03-05T14:13:20.667648","MEAN_MOTION":15.30190924,"ECCENTRICITY":8.299e-5,"INCLINATION":53.161,"RA_OF_ASC_NODE":210.6657,"ARG_OF_PERICENTER":110.8621,"MEAN_ANOMALY":249.2469,"EPHEMERIS_TYPE":0,"CLASSIFICATION_TYPE":"U","NORAD_CAT_ID":66274,"ELEMENT_SET_NO":999,"REV_AT_EPOCH":2040,"BSTAR":0.0018054616,"MEAN_MOTION_DOT":0.00053484,"MEAN_MOTION_DDOT":0},{"OBJECT_NAME":"STARLINK-35752","OBJECT_ID":"2025-247L","EPOCH":"2026-03-05T09:19:01.711200","MEAN_MOTION":15.30214853,"ECCENTRICITY":0.00025955,"INCLINATION":53.1582,"RA_OF_ASC_NODE":211.5245,"ARG_OF_PERICENTER":84.0068,"MEAN_ANOMALY":276.1229,"EPHEMERIS_TYPE":0,"CLASSIFICATION_TYPE":"U","NORAD_CAT_ID":66275,"ELEMENT_SET_NO":999,"REV_AT_EPOCH":2037,"BSTAR":0.0011014224,"MEAN_MOTION_DOT":0.00032421,"MEAN_MOTION_DDOT":0},{"OBJECT_NAME":"STARLINK-35742","OBJECT_ID":"2025-247M","EPOCH":"2026-03-05T13:47:30.483168","MEAN_MOTION":15.30208665,"ECCENTRICITY":7.475e-5,"INCLINATION":53.1576,"RA_OF_ASC_NODE":210.5519,"ARG_OF_PERICENTER":103.4082,"MEAN_ANOMALY":256.7002,"EPHEMERIS_TYPE":0,"CLASSIFICATION_TYPE":"U","NORAD_CAT_ID":66276,"ELEMENT_SET_NO":999,"REV_AT_EPOCH":2045,"BSTAR":0.0010103561,"MEAN_MOTION_DOT":0.00029692,"MEAN_MOTION_DDOT":0},{"OBJECT_NAME":"STARLINK-35708","OBJECT_ID":"2025-247N","EPOCH":"2026-03-05T13:33:50.140224","MEAN_MOTION":15.30199359,"ECCENTRICITY":0.00011024,"INCLINATION":53.1574,"RA_OF_ASC_NODE":210.4962,"ARG_OF_PERICENTER":80.3007,"MEAN_ANOMALY":279.8119,"EPHEMERIS_TYPE":0,"CLASSIFICATION_TYPE":"U","NORAD_CAT_ID":66277,"ELEMENT_SET_NO":999,"REV_AT_EPOCH":2045,"BSTAR":0.00073305252,"MEAN_MOTION_DOT":0.00021414,"MEAN_MOTION_DDOT":0},{"OBJECT_NAME":"STARLINK-35713","OBJECT_ID":"2025-247P","EPOCH":"2026-03-05T16:00:53.111232","MEAN_MOTION":15.30269162,"ECCENTRICITY":8.811e-5,"INCLINATION":53.1576,"RA_OF_ASC_NODE":209.7109,"ARG_OF_PERICENTER":60.2888,"MEAN_ANOMALY":299.82,"EPHEMERIS_TYPE":0,"CLASSIFICATION_TYPE":"U","NORAD_CAT_ID":66278,"ELEMENT_SET_NO":999,"REV_AT_EPOCH":2047,"BSTAR":0.0019530609,"MEAN_MOTION_DOT":0.00058062,"MEAN_MOTION_DDOT":0},{"OBJECT_NAME":"STARLINK-35724","OBJECT_ID":"2025-247Q","EPOCH":"2026-03-05T15:56:30.607296","MEAN_MOTION":15.30103717,"ECCENTRICITY":0.00010486,"INCLINATION":53.1604,"RA_OF_ASC_NODE":210.4011,"ARG_OF_PERICENTER":71.3237,"MEAN_ANOMALY":288.7878,"EPHEMERIS_TYPE":0,"CLASSIFICATION_TYPE":"U","NORAD_CAT_ID":66279,"ELEMENT_SET_NO":999,"REV_AT_EPOCH":2041,"BSTAR":0.0058773297,"MEAN_MOTION_DOT":0.0017739,"MEAN_MOTION_DDOT":0},{"OBJECT_NAME":"STARLINK-35726","OBJECT_ID":"2025-247R","EPOCH":"2026-03-05T14:39:00.861696","MEAN_MOTION":15.30194788,"ECCENTRICITY":0.00011607,"INCLINATION":53.1601,"RA_OF_ASC_NODE":210.0673,"ARG_OF_PERICENTER":91.8105,"MEAN_ANOMALY":268.3028,"EPHEMERIS_TYPE":0,"CLASSIFICATION_TYPE":"U","NORAD_CAT_ID":66280,"ELEMENT_SET_NO":999,"REV_AT_EPOCH":2041,"BSTAR":0.0011618072,"MEAN_MOTION_DOT":0.00034203,"MEAN_MOTION_DDOT":0},{"OBJECT_NAME":"STARLINK-35727","OBJECT_ID":"2025-247S","EPOCH":"2026-03-05T15:50:26.459808","MEAN_MOTION":15.30234434,"ECCENTRICITY":0.00017754,"INCLINATION":53.1587,"RA_OF_ASC_NODE":210.3741,"ARG_OF_PERICENTER":87.3482,"MEAN_ANOMALY":272.7722,"EPHEMERIS_TYPE":0,"CLASSIFICATION_TYPE":"U","NORAD_CAT_ID":66281,"ELEMENT_SET_NO":999,"REV_AT_EPOCH":2041,"BSTAR":0.0010521606,"MEAN_MOTION_DOT":0.00030966,"MEAN_MOTION_DDOT":0},{"OBJECT_NAME":"STARLINK-35776","OBJECT_ID":"2025-247T","EPOCH":"2026-03-05T14:10:18.262560","MEAN_MOTION":15.30189067,"ECCENTRICITY":0.00010447,"INCLINATION":53.1603,"RA_OF_ASC_NODE":210.6512,"ARG_OF_PERICENTER":59.6164,"MEAN_ANOMALY":300.494,"EPHEMERIS_TYPE":0,"CLASSIFICATION_TYPE":"U","NORAD_CAT_ID":66282,"ELEMENT_SET_NO":999,"REV_AT_EPOCH":2040,"BSTAR":0.0010431083,"MEAN_MOTION_DOT":0.00030652,"MEAN_MOTION_DDOT":0},{"OBJECT_NAME":"STARLINK-35774","OBJECT_ID":"2025-247U","EPOCH":"2026-03-05T03:05:50.555040","MEAN_MOTION":15.30214614,"ECCENTRICITY":1.049e-5,"INCLINATION":53.1597,"RA_OF_ASC_NODE":212.7472,"ARG_OF_PERICENTER":282.8302,"MEAN_ANOMALY":77.2687,"EPHEMERIS_TYPE":0,"CLASSIFICATION_TYPE":"U","NORAD_CAT_ID":66283,"ELEMENT_SET_NO":999,"REV_AT_EPOCH":2033,"BSTAR":0.00070205488,"MEAN_MOTION_DOT":0.00020501,"MEAN_MOTION_DDOT":0},{"OBJECT_NAME":"STARLINK-35830","OBJECT_ID":"2025-247V","EPOCH":"2026-03-05T13:58:08.785632","MEAN_MOTION":15.3020355,"ECCENTRICITY":0.00010967,"INCLINATION":53.1591,"RA_OF_ASC_NODE":210.5949,"ARG_OF_PERICENTER":92.9922,"MEAN_ANOMALY":267.1204,"EPHEMERIS_TYPE":0,"CLASSIFICATION_TYPE":"U","NORAD_CAT_ID":66284,"ELEMENT_SET_NO":999,"REV_AT_EPOCH":2040,"BSTAR":0.0013303141,"MEAN_MOTION_DOT":0.00039253,"MEAN_MOTION_DDOT":0},{"OBJECT_NAME":"STARLINK-35819","OBJECT_ID":"2025-247W","EPOCH":"2026-03-05T13:50:33.004896","MEAN_MOTION":15.30220503,"ECCENTRICITY":0.00013698,"INCLINATION":53.1588,"RA_OF_ASC_NODE":210.5637,"ARG_OF_PERICENTER":35.3111,"MEAN_ANOMALY":324.798,"EPHEMERIS_TYPE":0,"CLASSIFICATION_TYPE":"U","NORAD_CAT_ID":66285,"ELEMENT_SET_NO":999,"REV_AT_EPOCH":2040,"BSTAR":0.00099068925,"MEAN_MOTION_DOT":0.00029116,"MEAN_MOTION_DDOT":0},{"OBJECT_NAME":"STARLINK-35783","OBJECT_ID":"2025-247X","EPOCH":"2026-03-05T13:44:29.469984","MEAN_MOTION":15.30222952,"ECCENTRICITY":0.00011404,"INCLINATION":53.1574,"RA_OF_ASC_NODE":210.5407,"ARG_OF_PERICENTER":47.9544,"MEAN_ANOMALY":312.1553,"EPHEMERIS_TYPE":0,"CLASSIFICATION_TYPE":"U","NORAD_CAT_ID":66286,"ELEMENT_SET_NO":999,"REV_AT_EPOCH":2040,"BSTAR":0.00099023972,"MEAN_MOTION_DOT":0.00029105,"MEAN_MOTION_DDOT":0},{"OBJECT_NAME":"STARLINK-34884","OBJECT_ID":"2025-247Y","EPOCH":"2026-03-05T13:36:52.140096","MEAN_MOTION":15.30233012,"ECCENTRICITY":9.329e-5,"INCLINATION":53.1571,"RA_OF_ASC_NODE":210.5025,"ARG_OF_PERICENTER":99.5403,"MEAN_ANOMALY":260.5703,"EPHEMERIS_TYPE":0,"CLASSIFICATION_TYPE":"U","NORAD_CAT_ID":66287,"ELEMENT_SET_NO":999,"REV_AT_EPOCH":2040,"BSTAR":0.0014550153,"MEAN_MOTION_DOT":0.00043028,"MEAN_MOTION_DDOT":0}]
